{
  "norad_id": 68660,
  "name": "GUOWANG GROUP 21 OBJECT E",
  "history": [
    {
      "epoch": "2026-04-09T21:05:30.446304Z",
      "apogee_km": 955.3752518581514,
      "perigee_km": 947.3597057601255,
      "latitude_deg": -1.8817767807028978e-05,
      "longitude_deg": -86.48315436962872,
      "height_km": 958.1981298584716,
      "semi_major_axis_km": 7329.504478809138,
      "eccentricity": 0.0005468,
      "inclination_deg": 86.4928,
      "raan_deg": 68.0144,
      "arg_perigee_deg": 196.2357,
      "mean_anomaly_deg": 163.8636,
      "mean_motion_rev_day": 13.83537198
    }
  ]
}