GUOWANG GROUP 21 OBJECT*
1 68660U 26076E   26099.87882461  .00000740  00000+0  65566-3 0  9998
2 68660  86.4928  68.0144 0005468 196.2357 163.8636 13.83537198   140
